XM-5                    
1 37185U 10053A   22230.68973861 -.00000030  00000+0  00000+0 0  9992
2 37185   0.0180 110.9237 0000712 233.7881 115.4060  1.00272021 43469
BSAT-3B                 
1 37207U 10056B   22228.87827329 -.00000362  00000+0  00000+0 0  9993
2 37207   0.1036 294.3775 0001067 338.9127 117.9651  1.00270923 38077
BEIDOU 6                
1 37210U 10057A   22230.88808314 -.00000118  00000+0  00000+0 0  9994
2 37210   0.9609  53.8432 0005968 130.9625 262.1508  1.00273263 43261
SKYTERRA 1              
1 37218U 10061A   22230.60952321 -.00000125  00000+0  00000+0 0  9993
2 37218   2.5160  34.5761 0001360 160.6849 249.7933  1.00271867 43171
ZHONGXING-20A           
1 37234U 10064A   22230.87866550 -.00000366  00000+0  00000+0 0  9998
2 37234   2.8036  87.9204 0002490  64.7197 243.7065  1.00272568 43004
HYLAS 1                 
1 37237U 10065A   22229.28398803 -.00000244  00000+0  00000+0 0  9991
2 37237   2.0666  89.6186 0001809  51.7282 207.4847  1.00269492 42949
INTELSAT 17 (IS-17)     
1 37238U 10065B   22230.43886215 -.00000009  00000+0  00000+0 0  9999
2 37238   0.0345 224.0420 0002491 286.5160  40.2050  1.00273392 42896
BEIDOU 7                
1 37256U 10068A   22230.59724745 -.00000190  00000+0  00000+0 0  9999
2 37256  50.1034 288.9052 0023792 200.1989 160.1397  1.00287845 42776
EUTELSAT KA-SAT 9A      
1 37258U 10069A   22230.91741949  .00000055  00000+0  00000+0 0  9992
2 37258   0.0722 276.4820 0005173 235.1553 154.8492  1.00271526 29971
HISPASAT 30W-5          
1 37264U 10070A   22230.85743808 -.00000223  00000+0  00000+0 0  9998
2 37264   0.0242 123.1037 0005732  24.3794  98.3800  1.00270956 39162
KOREASAT 6              
1 37265U 10070B   22230.87936310 -.00000369  00000+0  00000+0 0  9994
2 37265   0.0139  73.1592 0001426  92.9363 233.6711  1.00269728 42745
